{"type": "FeatureCollection", "features": [ {"type": "Feature", "properties": {"norad_id": 38803, "name": "FENGYUN 1C DEB", "group": "fengyun-1c-debris", "lat": -65.94538807997084, "lon": 148.10867843425325, "alt_km": 861.2169648894196, "timestamp": "2025-12-11T10:53:16.177873+00:00", "meta": {"OBJECT_NAME": "FENGYUN 1C DEB", "OBJECT_ID": "1999-025EUT", "EPOCH": "2025-12-02T23:18:31.375872", "MEAN_MOTION": 14.23518858, "ECCENTRICITY": 0.00644877, "INCLINATION": 99.1384, "RA_OF_ASC_NODE": 340.4394, "ARG_OF_PERICENTER": 63.9975, "MEAN_ANOMALY": 296.7825, "EPHEMERIS_TYPE": 0, "CLASSIFICATION_TYPE": "U", "NORAD_CAT_ID": 38803, "ELEMENT_SET_NO": 999, "REV_AT_EPOCH": 60073, "BSTAR": 0.0027014694, "MEAN_MOTION_DOT": 6.236e-05, "MEAN_MOTION_DDOT": 0}, "tle": {"line1": "1 38803U 99025EUT 25336.97119648  .00006236  00000+0  27015-2 0  9994", "line2": "2 38803  99.1384 340.4394 0064487  63.9975 296.7825 14.23518858600733"}}, "geometry": {"type": "Point", "coordinates": [148.10867843425325, -65.94538807997084]}}, {"type": "Feature", "properties": {"norad_id": 38809, "name": "FENGYUN 1C DEB", "group": "fengyun-1c-debris", "lat": -42.967385614171526, "lon": 167.57061515768564, "alt_km": 885.2424341914693, "timestamp": "2025-12-11T10:53:16.177884+00:00", "meta": {"OBJECT_NAME": "FENGYUN 1C DEB", "OBJECT_ID": "1999-025EUZ", "EPOCH": "2025-12-10T06:43:41.350080", "MEAN_MOTION": 14.18160711, "ECCENTRICITY": 0.0222916, "INCLINATION": 98.5898, "RA_OF_ASC_NODE": 354.5276, "ARG_OF_PERICENTER": 335.1175, "MEAN_ANOMALY": 23.9381, "EPHEMERIS_TYPE": 0, "CLASSIFICATION_TYPE": "U", "NORAD_CAT_ID": 38809, "ELEMENT_SET_NO": 999, "REV_AT_EPOCH": 69171, "BSTAR": 0.00090314, "MEAN_MOTION_DOT": 2.326e-05, "MEAN_MOTION_DDOT": 0}, "tle": {"line1": "1 38809U 99025EUZ 25344.28033970  .00002326  00000+0  90314-3 0  9995", "line2": "2 38809  98.5898 354.5276 0222916 335.1175  23.9381 14.18160711691716"}}, "geometry": {"type": "Point", "coordinates": [167.57061515768564, -42.967385614171526]}}, {"type": "Feature", "properties": {"norad_id": 38813, "name": "FENGYUN 1C DEB", "group": "fengyun-1c-debris", "lat": -40.02224351988374, "lon": -9.50588022229518, "alt_km": 835.5401994556696, "timestamp": "2025-12-11T10:53:16.177895+00:00", "meta": {"OBJECT_NAME": "FENGYUN 1C DEB", "OBJECT_ID": "1999-025EVD", "EPOCH": "2025-12-10T18:10:13.006272", "MEAN_MOTION": 14.20157655, "ECCENTRICITY": 0.00064418, "INCLINATION": 99.3453, "RA_OF_ASC_NODE": 341.8102, "ARG_OF_PERICENTER": 118.8158, "MEAN_ANOMALY": 241.3663, "EPHEMERIS_TYPE": 0, "CLASSIFICATION_TYPE": "U", "NORAD_CAT_ID": 38813, "ELEMENT_SET_NO": 999, "REV_AT_EPOCH": 48222, "BSTAR": 0.00078375468, "MEAN_MOTION_DOT": 1.623e-05, "MEAN_MOTION_DDOT": 0}, "tle": {"line1": "1 38813U 99025EVD 25344.75709498  .00001623  00000+0  78375-3 0  9999", "line2": "2 38813  99.3453 341.8102 0006441 118.8158 241.3663 14.20157655482223"}}, "geometry": {"type": "Point", "coordinates": [-9.50588022229518, -40.02224351988374]}}, {"type": "Feature", "properties": {"norad_id": 38817, "name": "FENGYUN 1C DEB", "group": "fengyun-1c-debris", "lat": -61.04580960859981, "lon": 20.086006212585914, "alt_km": 1260.0886704595823, "timestamp": "2025-12-11T10:53:16.177905+00:00", "meta": {"OBJECT_NAME": "FENGYUN 1C DEB", "OBJECT_ID": "1999-025EVH", "EPOCH": "2025-12-09T09:57:11.671488", "MEAN_MOTION": 13.57673214, "ECCENTRICITY": 0.0291164, "INCLINATION": 98.5997, "RA_OF_ASC_NODE": 214.1716, "ARG_OF_PERICENTER": 53.0106, "MEAN_ANOMALY": 309.7311, "EPHEMERIS_TYPE": 0, "CLASSIFICATION_TYPE": "U", "NORAD_CAT_ID": 38817, "ELEMENT_SET_NO": 999, "REV_AT_EPOCH": 65789, "BSTAR": 0.0028743658, "MEAN_MOTION_DOT": 2.687e-05, "MEAN_MOTION_DDOT": 0}, "tle": {"line1": "1 38817U 99025EVH 25343.41471842  .00002687  00000+0  28744-2 0  9999", "line2": "2 38817  98.5997 214.1716 0291164  53.0106 309.7311 13.57673214657894"}}, "geometry": {"type": "Point", "coordinates": [20.086006212585914, -61.04580960859981]}}, {"type": "Feature", "properties": {"norad_id": 38818, "name": "FENGYUN 1C DEB", "group": "fengyun-1c-debris", "lat": 33.082045351641845, "lon": -132.75694645258372, "alt_km": 711.7294518355238, "timestamp": "2025-12-11T10:53:16.177915+00:00", "meta": {"OBJECT_NAME": "FENGYUN 1C DEB", "OBJECT_ID": "1999-025EVJ", "EPOCH": "2025-12-10T09:28:27.154272", "MEAN_MOTION": 14.39476027, "ECCENTRICITY": 0.00887131, "INCLINATION": 98.3, "RA_OF_ASC_NODE": 40.7606, "ARG_OF_PERICENTER": 106.4212, "MEAN_ANOMALY": 315.1477, "EPHEMERIS_TYPE": 0, "CLASSIFICATION_TYPE": "U", "NORAD_CAT_ID": 38818, "ELEMENT_SET_NO": 999, "REV_AT_EPOCH": 67214, "BSTAR": 0.00064441216, "MEAN_MOTION_DOT": 2.06e-05, "MEAN_MOTION_DDOT": 0}, "tle": {"line1": "1 38818U 99025EVJ 25344.39475873  .00002060  00000+0  64441-3 0  9996", "line2": "2 38818  98.3000  40.7606 0088713 106.4212 315.1477 14.39476027672147"}}, "geometry": {"type": "Point", "coordinates": [-132.75694645258372, 33.082045351641845]}}, {"type": "Feature", "properties": {"norad_id": 38819, "name": "FENGYUN 1C DEB", "group": "fengyun-1c-debris", "lat": -19.821486664128773, "lon": 155.16785657529755, "alt_km": 775.3955997393741, "timestamp": "2025-12-11T10:53:16.177926+00:00", "meta": {"OBJECT_NAME": "FENGYUN 1C DEB", "OBJECT_ID": "1999-025EVK", "EPOCH": "2025-12-05T17:44:45.178656", "MEAN_MOTION": 14.19352326, "ECCENTRICITY": 0.00793982, "INCLINATION": 98.6175, "RA_OF_ASC_NODE": 332.7424, "ARG_OF_PERICENTER": 214.8039, "MEAN_ANOMALY": 323.5095, "EPHEMERIS_TYPE": 0, "CLASSIFICATION_TYPE": "U", "NORAD_CAT_ID": 38819, "ELEMENT_SET_NO": 999, "REV_AT_EPOCH": 63378, "BSTAR": 0.00071386354, "MEAN_MOTION_DOT": 1.505e-05, "MEAN_MOTION_DDOT": 0}, "tle": {"line1": "1 38819U 99025EVK 25339.73941179  .00001505  00000+0  71386-3 0  9995", "line2": "2 38819  98.6175 332.7424 0079398 214.8039 323.5095 14.19352326633785"}}, "geometry": {"type": "Point", "coordinates": [155.16785657529755, -19.821486664128773]}}, {"type": "Feature", "properties": {"norad_id": 38824, "name": "FENGYUN 1C DEB", "group": "fengyun-1c-debris", "lat": -70.62966331540166, "lon": -88.79376911526484, "alt_km": 805.8993777612668, "timestamp": "2025-12-11T10:53:16.177936+00:00", "meta": {"OBJECT_NAME": "FENGYUN 1C DEB", "OBJECT_ID": "1999-025EVQ", "EPOCH": "2025-11-20T14:24:21.461760", "MEAN_MOTION": 14.13875773, "ECCENTRICITY": 0.00960414, "INCLINATION": 99.2955, "RA_OF_ASC_NODE": 97.2934, "ARG_OF_PERICENTER": 263.2679, "MEAN_ANOMALY": 95.7556, "EPHEMERIS_TYPE": 0, "CLASSIFICATION_TYPE": "U", "NORAD_CAT_ID": 38824, "ELEMENT_SET_NO": 999, "REV_AT_EPOCH": 68824, "BSTAR": 0.0027703315, "MEAN_MOTION_DOT": 5.443e-05, "MEAN_MOTION_DDOT": 0}, "tle": {"line1": "1 38824U 99025EVQ 25324.60024840  .00005443  00000+0  27703-2 0  9996", "line2": "2 38824  99.2955  97.2934 0096041 263.2679  95.7556 14.13875773688246"}}, "geometry": {"type": "Point", "coordinates": [-88.79376911526484, -70.62966331540166]}}, {"type": "Feature", "properties": {"norad_id": 38827, "name": "FENGYUN 1C DEB", "group": "fengyun-1c-debris", "lat": 75.46166406846571, "lon": -26.25307908799128, "alt_km": 853.307032888215, "timestamp": "2025-12-11T10:53:16.177947+00:00", "meta": {"OBJECT_NAME": "FENGYUN 1C DEB", "OBJECT_ID": "1999-025EVT", "EPOCH": "2025-12-10T07:42:42.702048", "MEAN_MOTION": 14.32827414, "ECCENTRICITY": 0.021646, "INCLINATION": 98.3872, "RA_OF_ASC_NODE": 7.3235, "ARG_OF_PERICENTER": 320.0976, "MEAN_ANOMALY": 38.4466, "EPHEMERIS_TYPE": 0, "CLASSIFICATION_TYPE": "U", "NORAD_CAT_ID": 38827, "ELEMENT_SET_NO": 999, "REV_AT_EPOCH": 61025, "BSTAR": 0.0014001, "MEAN_MOTION_DOT": 4.908e-05, "MEAN_MOTION_DDOT": 0}, "tle": {"line1": "1 38827U 99025EVT 25344.32132757  .00004908  00000+0  14001-2 0  9999", "line2": "2 38827  98.3872   7.3235 0216460 320.0976  38.4466 14.32827414610254"}}, "geometry": {"type": "Point", "coordinates": [-26.25307908799128, 75.46166406846571]}}, {"type": "Feature", "properties": {"norad_id": 38829, "name": "FENGYUN 1C DEB", "group": "fengyun-1c-debris", "lat": 53.3763584517018, "lon": -166.57937016067285, "alt_km": 857.6260299152191, "timestamp": "2025-12-11T10:53:16.177957+00:00", "meta": {"OBJECT_NAME": "FENGYUN 1C DEB", "OBJECT_ID": "1999-025EVV", "EPOCH": "2025-12-09T00:21:36.740448", "MEAN_MOTION": 14.09204393, "ECCENTRICITY": 0.00412839, "INCLINATION": 98.7497, "RA_OF_ASC_NODE": 359.0946, "ARG_OF_PERICENTER": 41.119, "MEAN_ANOMALY": 319.3079, "EPHEMERIS_TYPE": 0, "CLASSIFICATION_TYPE": "U", "NORAD_CAT_ID": 38829, "ELEMENT_SET_NO": 999, "REV_AT_EPOCH": 64080, "BSTAR": 0.00074064709, "MEAN_MOTION_DOT": 1.255e-05, "MEAN_MOTION_DDOT": 0}, "tle": {"line1": "1 38829U 99025EVV 25343.01500857  .00001255  00000+0  74065-3 0  9995", "line2": "2 38829  98.7497 359.0946 0041283  41.1190 319.3079 14.09204393640801"}}, "geometry": {"type": "Point", "coordinates": [-166.57937016067285, 53.3763584517018]}}, {"type": "Feature", "properties": {"norad_id": 38832, "name": "FENGYUN 1C DEB", "group": "fengyun-1c-debris", "lat": -43.863075286639116, "lon": -159.23234969548363, "alt_km": 946.0052189775997, "timestamp": "2025-12-11T10:53:16.177968+00:00", "meta": {"OBJECT_NAME": "FENGYUN 1C DEB", "OBJECT_ID": "1999-025EVY", "EPOCH": "2025-12-06T01:35:41.081280", "MEAN_MOTION": 14.04461067, "ECCENTRICITY": 0.00842955, "INCLINATION": 99.2666, "RA_OF_ASC_NODE": 24.2995, "ARG_OF_PERICENTER": 61.4582, "MEAN_ANOMALY": 299.5038, "EPHEMERIS_TYPE": 0, "CLASSIFICATION_TYPE": "U", "NORAD_CAT_ID": 38832, "ELEMENT_SET_NO": 999, "REV_AT_EPOCH": 63664, "BSTAR": 0.0018423355, "MEAN_MOTION_DOT": 2.987e-05, "MEAN_MOTION_DDOT": 0}, "tle": {"line1": "1 38832U 99025EVY 25340.06644770  .00002987  00000+0  18423-2 0  9992", "line2": "2 38832  99.2666  24.2995 0084295  61.4582 299.5038 14.04461067636643"}}, "geometry": {"type": "Point", "coordinates": [-159.23234969548363, -43.863075286639116]}}]}